{
  "links" : {
    "next" : "https://api.nasa.gov/neo/rest/v1/feed?start_date=2003-09-23&end_date=2003-09-23&detailed=true&api_key=t0TVs3DtDT2H8Oy2Zy8m2eVrNsAVKAexjcZXUckd",
    "prev" : "https://api.nasa.gov/neo/rest/v1/feed?start_date=2003-09-21&end_date=2003-09-21&detailed=true&api_key=t0TVs3DtDT2H8Oy2Zy8m2eVrNsAVKAexjcZXUckd",
    "self" : "https://api.nasa.gov/neo/rest/v1/feed?start_date=2003-09-22&end_date=2003-09-22&detailed=true&api_key=t0TVs3DtDT2H8Oy2Zy8m2eVrNsAVKAexjcZXUckd"
  },
  "element_count" : 8,
  "near_earth_objects" : {
    "2003-09-22" : [ {
      "links" : {
        "self" : "https://api.nasa.gov/neo/rest/v1/neo/3323933?api_key=t0TVs3DtDT2H8Oy2Zy8m2eVrNsAVKAexjcZXUckd"
      },
      "neo_reference_id" : "3323933",
      "name" : "(2006 DV)",
      "nasa_jpl_url" : "http://ssd.jpl.nasa.gov/sbdb.cgi?sstr=3323933",
      "absolute_magnitude_h" : 19.6,
      "estimated_diameter" : {
        "kilometers" : {
          "estimated_diameter_min" : 0.3195618867,
          "estimated_diameter_max" : 0.7145621017
        },
        "meters" : {
          "estimated_diameter_min" : 319.5618867213,
          "estimated_diameter_max" : 714.5621017269
        },
        "miles" : {
          "estimated_diameter_min" : 0.1985664891,
          "estimated_diameter_max" : 0.4440081677
        },
        "feet" : {
          "estimated_diameter_min" : 1048.4314204307,
          "estimated_diameter_max" : 2344.3639258298
        }
      },
      "is_potentially_hazardous_asteroid" : false,
      "close_approach_data" : [ {
        "close_approach_date" : "2003-09-22",
        "epoch_date_close_approach" : 1064214000000,
        "relative_velocity" : {
          "kilometers_per_second" : "41.1111284484",
          "kilometers_per_hour" : "148000.0624142836",
          "miles_per_hour" : "91961.483226253"
        },
        "miss_distance" : {
          "astronomical" : "0.4778210329",
          "lunar" : "185.8723754883",
          "kilometers" : "71481008",
          "miles" : "44416240"
        },
        "orbiting_body" : "Earth"
      } ],
      "orbital_data" : {
        "orbit_id" : "15",
        "orbit_determination_date" : "2017-04-06 09:09:07",
        "orbit_uncertainty" : "0",
        "minimum_orbit_intersection" : ".12742",
        "jupiter_tisserand_invariant" : "3.218",
        "epoch_osculation" : "2458000.5",
        "eccentricity" : ".6145488186854587",
        "semi_major_axis" : "1.956492589043906",
        "inclination" : "54.75356278716307",
        "ascending_node_longitude" : "164.2775437758488",
        "orbital_period" : "999.5758102480108",
        "perihelion_distance" : ".7541323796801188",
        "perihelion_argument" : "93.95962631541444",
        "aphelion_distance" : "3.158852798407692",
        "perihelion_time" : "2457857.027226744791",
        "mean_anomaly" : "51.67211715443563",
        "mean_motion" : ".3601527731155061",
        "equinox" : "J2000"
      }
    }, {
      "links" : {
        "self" : "https://api.nasa.gov/neo/rest/v1/neo/3160850?api_key=t0TVs3DtDT2H8Oy2Zy8m2eVrNsAVKAexjcZXUckd"
      },
      "neo_reference_id" : "3160850",
      "name" : "(2003 TK2)",
      "nasa_jpl_url" : "http://ssd.jpl.nasa.gov/sbdb.cgi?sstr=3160850",
      "absolute_magnitude_h" : 19.8,
      "estimated_diameter" : {
        "kilometers" : {
          "estimated_diameter_min" : 0.2914439045,
          "estimated_diameter_max" : 0.6516883822
        },
        "meters" : {
          "estimated_diameter_min" : 291.4439045349,
          "estimated_diameter_max" : 651.6883821679
        },
        "miles" : {
          "estimated_diameter_min" : 0.1810947904,
          "estimated_diameter_max" : 0.4049402617
        },
        "feet" : {
          "estimated_diameter_min" : 956.1808197541,
          "estimated_diameter_max" : 2138.0853117517
        }
      },
      "is_potentially_hazardous_asteroid" : true,
      "close_approach_data" : [ {
        "close_approach_date" : "2003-09-22",
        "epoch_date_close_approach" : 1064214000000,
        "relative_velocity" : {
          "kilometers_per_second" : "12.4958487245",
          "kilometers_per_hour" : "44985.0554081687",
          "miles_per_hour" : "27951.9640118146"
        },
        "miss_distance" : {
          "astronomical" : "0.1291742993",
          "lunar" : "50.2487983704",
          "kilometers" : "19324200",
          "miles" : "12007501"
        },
        "orbiting_body" : "Earth"
      } ],
      "orbital_data" : {
        "orbit_id" : "26",
        "orbit_determination_date" : "2017-04-06 09:13:42",
        "orbit_uncertainty" : "1",
        "minimum_orbit_intersection" : ".0206764",
        "jupiter_tisserand_invariant" : "3.238",
        "epoch_osculation" : "2458000.5",
        "eccentricity" : ".6471413114439605",
        "semi_major_axis" : "2.34787281669121",
        "inclination" : "4.285237836394748",
        "ascending_node_longitude" : "1.026441962266346",
        "orbital_period" : "1314.045121905254",
        "perihelion_distance" : ".828467322994035",
        "perihelion_argument" : "320.9473133499655",
        "aphelion_distance" : "3.867278310388385",
        "perihelion_time" : "2458118.305759687961",
        "mean_anomaly" : "327.7255576839136",
        "mean_motion" : ".2739631950218198",
        "equinox" : "J2000"
      }
    } ]
  }
}